stk.v.11.0
WrittenBy    formation-sat-exporter

BEGIN Ephemeris
    NumberOfEphemerisPoints 20161
    ScenarioEpoch 14 Mar 2026 07:40:10.000000000 UTCG
    InterpolationMethod     Lagrange
    InterpolationOrder      7
    CentralBody             Earth
    CoordinateSystem        TEME
    DistanceUnit            Kilometers

    BEGIN EphemerisTimePosVel
        47640.000000000 -1.43886148542946e+02 -9.16825492198915e+02  6.87690477814516e+03 -7.48005147699385e+00  1.18665703950849e+00  1.69867502429212e-03
        47700.000000000 -5.92379816809623e+02 -8.43654520211006e+02  6.86224633321540e+03 -7.45369305266903e+00  1.24975774172497e+00 -4.89789114805125e-01
        47760.000000000 -1.03832931486323e+03 -7.66854563191918e+02  6.81813008436854e+03 -7.39533681837042e+00  1.30749338390338e+00 -9.79174298730050e-01
        47820.000000000 -1.47982023501407e+03 -6.86755314142600e+02  6.74474541736779e+03 -7.30523329041021e+00  1.35961611385901e+00 -1.46435600487281e+00
        47880.000000000 -1.91495730971245e+03 -6.03700629528837e+02  6.64240736378381e+03 -7.18376927242323e+00  1.40590217496590e+00 -1.94325140638150e+00
        47940.000000000 -2.34187254770486e+03 -5.18047053146692e+02  6.51155524860201e+03 -7.03146619486532e+00  1.44615286671717e+00 -2.41380466275577e+00
        48000.000000000 -2.75873325309629e+03 -4.30162285522777e+02  6.35275080425311e+03 -6.84897787657498e+00  1.48019539772244e+00 -2.87399574532347e+00
        48060.000000000 -3.16374989289386e+03 -3.40423605420000e+02  6.16667575916319e+03 -6.63708771800750e+00  1.50788362748056e+00 -3.32184910898128e+00
        48120.000000000 -3.55518377925719e+03 -2.49216250225109e+02  5.95412891117536e+03 -6.39670533819082e+00  1.52909869374325e+00 -3.75544217297290e+00
        48180.000000000 -3.93135453347676e+03 -1.56931762170810e+02  5.71602269840645e+03 -6.12886266984019e+00  1.54374952277644e+00 -4.17291357429753e+00
        48240.000000000 -4.29064729963802e+03 -6.39663074919369e+01  5.45337928225966e+03 -5.83470952939482e+00  1.55177322032891e+00 -4.57247115831790e+00
        48300.000000000 -4.63151967700413e+03  2.92810242686588e+01  5.16732615940830e+03 -5.51550868098933e+00  1.55313534162842e+00 -4.95239967226055e+00
        48360.000000000 -4.95250834135674e+03  1.22409933503473e+02  4.85909132158839e+03 -5.17263041557723e+00  1.54783003925434e+00 -5.31106812860817e+00
        48420.000000000 -5.25223532687340e+03  2.15020628979180e+02  4.52999798397532e+03 -4.80754666841278e+00  1.53588008823324e+00 -5.64693680671138e+00
        48480.000000000 -5.52941394156627e+03  3.06715544091462e+02  4.18145890478303e+03 -4.42182470021010e+00  1.51733678826838e+00 -5.95856386262402e+00
        48540.000000000 -5.78285429089862e+03  3.97101043571386e+02  3.81497032046043e+03 -4.01712036910423e+00  1.49227974352303e+00 -6.24461151878868e+00
        48600.000000000 -6.01146838585878e+03  4.85789113314225e+02  3.43210552252838e+03 -3.59517102223183e+00  1.46081652088390e+00 -6.50385180693771e+00
        48660.000000000 -6.21427481356644e+03  5.72399026077454e+02  3.03450810362791e+03 -3.15778803751306e+00  1.42308218819079e+00 -6.73517183961800e+00
        48720.000000000 -6.39040295036035e+03  6.56558975897120e+02  2.62388490177422e+03 -2.70684904762369e+00  1.37923873440656e+00 -6.93757858768324e+00
        48780.000000000 -6.53909669928128e+03  7.37907674206241e+02  2.20199867310592e+03 -2.24428987954327e+00  1.32947437421792e+00 -7.11020314324894e+00
        48840.000000000 -6.65971773590554e+03  8.16095900803271e+02  1.77066052458435e+03 -1.77209624428204e+00  1.27400274005238e+00 -7.25230444980975e+00
        48900.000000000 -6.75174824859512e+03  8.90788003012527e+02  1.33172213912875e+03 -1.29229521246191e+00  1.21306196497988e+00 -7.36327248350601e+00
        48960.000000000 -6.81479316140097e+03  9.61663336600857e+02  8.87067826563629e+02 -8.06946512345527e-01  1.14691366043608e+00 -7.44263087188315e+00
        49020.000000000 -6.84858183007659e+03  1.02841764226486e+03  4.38606434502773e+02 -3.18133687669877e-01  1.07584179315583e+00 -7.49003893890135e+00
        49080.000000000 -6.85296920392135e+03  1.09076435177956e+03 -1.17368461045333e+01  1.72044846756958e-01  1.00015146613810e+00 -7.50529316741697e+00
        49140.000000000 -6.82793644846575e+03  1.14843581820143e+03 -4.62028745587264e+02  6.61484813298790e-01  9.20167608875380e-01 -7.48832807285721e+00
        49200.000000000 -6.77359102632550e+03  1.20118446484460e+03 -9.10336214847398e+02  1.14808510490271e+00  8.36233582470360e-01 -7.43921648433752e+00
        49260.000000000 -6.69016623587743e+03  1.24878384809787e+03 -1.35473472370777e+03  1.62975680489964e+00  7.48709705627911e-01 -7.35816923201496e+00
        49320.000000000 -6.57802020973754e+03  1.29102962951995e+03 -1.79331652268919e+03  2.10443215447294e+00  6.57971707850114e-01 -7.24553424201962e+00
        49380.000000000 -6.43763437734067e+03  1.32774045303989e+03 -2.22419883275012e+03  2.57007342929888e+00  5.64409116474599e-01 -7.10179504284951e+00
        49440.000000000 -6.26961139822167e+03  1.35875872349690e+03 -2.64553192783113e+03  3.02468168724972e+00  4.68423584480091e-01 -6.92756868963486e+00
        49500.000000000 -6.07467257487071e+03  1.38395128317750e+03 -3.05550707550630e+03  3.46630534962409e+00  3.70427166239729e-01 -6.72360311521801e+00
        49560.000000000 -5.85365475626678e+03  1.40320998344567e+03 -3.45236430165730e+03  3.89304857902621e+00  2.70840548619236e-01 -6.49077391933777e+00
        49620.000000000 -5.60750674538756e+03  1.41645214901180e+03 -3.83439994582684e+03  4.30307941796765e+00  1.70091245018827e-01 -6.23008060978515e+00
        49680.000000000 -5.33728522611067e+03  1.42362093284793e+03 -4.19997397483151e+03  4.69463765325539e+00  6.86117601112540e-02 -5.94264231166581e+00
        49740.000000000 -5.04415022699691e+03  1.42468556022515e+03 -4.54751702322673e+03  5.06604237236489e+00 -3.31622668503687e-02 -5.62969296310647e+00
        49800.000000000 -4.72936014142688e+03  1.41964146082589e+03 -4.87553713040429e+03  5.41569917939849e+00 -1.34793932179237e-01 -5.29257601811252e+00
        49860.000000000 -4.39426632546909e+03  1.40851028836365e+03 -5.18262614540024e+03  5.74210703963577e+00 -2.35846943329971e-01 -4.93273867928121e+00
        49920.000000000 -4.04030729667059e+03  1.39133982762629e+03 -5.46746577191803e+03  6.04386472329544e+00 -3.35887491850132e-01 -4.55172568513451e+00
        49980.000000000 -3.66900255867364e+03  1.36820378934163e+03 -5.72883322761638e+03  6.31967682084674e+00 -4.34486115667887e-01 -4.15117267874198e+00
        50040.000000000 -3.28194607816898e+03  1.33920149374614e+03 -5.96560649336707e+03  6.56835930404710e+00 -5.31219542721147e-01 -3.73279918610132e+00
        50100.000000000 -2.88079944218799e+03  1.30445744421509e+03 -6.17676912994854e+03  6.78884460883329e+00 -6.25672508013737e-01 -3.29840123441960e+00
        50160.000000000 -2.46728472510898e+03  1.26412079278449e+03 -6.36141464149742e+03  6.98018621824590e+00 -7.17439536298220e-01 -2.84984364198388e+00
        50220.000000000 -2.04317709599848e+03  1.21836469985931e+03 -6.51875036698660e+03  7.14156272571308e+00 -8.06126682732462e-01 -2.38905201272011e+00
        50280.000000000 -1.61029719802341e+03  1.16738559085660e+03 -6.64810088302384e+03  7.27228136125038e+00 -8.91353224037592e-01 -1.91800446980652e+00
        50340.000000000 -1.17050333264844e+03  1.11140231297480e+03 -6.74891090336338e+03  7.37178096543919e+00 -9.72753292897353e-01 -1.43872316382810e+00
        50400.000000000 -7.25683482170711e+02  1.05065519570892e+03 -6.82074766268321e+03  7.43963439841678e+00 -1.04997744858259e+00 -9.53265591926733e-01
        50460.000000000 -2.77747204838423e+02  9.85405019144885e+02 -6.86330277439459e+03  7.47555037353651e+00 -1.12269417705837e+00 -4.63715765212957e-01
        50520.000000000  1.71382562653670e+02  9.15931894461912e+02 -6.87639355450876e+03  7.47937470782641e+00 -1.19059131413397e+00  2.78247376437920e-02
        50580.000000000  6.19777760100747e+02  8.42534061448808e+02 -6.85996380587734e+03  7.45109098387182e+00 -1.25337738554516e+00  5.19245792239408e-01
        50640.000000000  1.06551348071829e+03  7.65526608196493e+02 -6.81408405944003e+03  7.39082062031904e+00 -1.31078285822272e+00  1.00843778694901e+00
        50700.000000000  1.50667623453903e+03  6.85240118462082e+02 -6.73895127144346e+03  7.29882235060746e+00 -1.36256129736006e+00  1.49330067923347e+00
        50760.000000000  1.94137216279118e+03  6.02019252513285e+02 -6.63488797793202e+03  7.17549111225802e+00 -1.40849042432817e+00  1.97175301086917e+00
        50820.000000000  2.36773516801000e+03  5.16221267542701e+02 -6.50234091013915e+03  7.02135635148603e+00 -1.44837307089669e+00  2.44174084340204e+00
        50880.000000000  2.78393492496951e+03  4.28214484005683e+02 -6.34187907672377e+03  6.83707975032624e+00 -1.48203802564905e+00  2.90124657545663e+00
        50940.000000000  3.18818473804914e+03  3.38376704464816e+02 -6.15419132108436e+03  6.62345238611774e+00 -1.50934076897365e+00  3.34829760405715e+00
        51000.000000000  3.57874921130364e+03  2.47093591728845e+02 -5.94008336423691e+03  6.38139133550387e+00 -1.53016409346922e+00  3.78097479277545e+00
        51060.000000000  3.95395169830961e+03  1.54757013248509e+02 -5.70047434595131e+03  6.11193573753219e+00 -1.54441860710209e+00  4.19742071035337e+00
        51120.000000000  4.31218149980750e+03  6.17633588765935e+01 -5.43639287899451e+03  5.81624233275525e+00 -1.55204311695551e+00  4.59584760443234e+00
        51180.000000000  4.65190077824024e+03 -3.14881607861526e+01 -5.14897263341943e+03  5.49558049748218e+00 -1.55300489192348e+00  4.97454507615972e+00
        51240.000000000  4.97165115950536e+03 -1.24597228154224e+02 -4.83944746985534e+03  5.15132679449848e+00 -1.54729980322145e+00  5.33188742272590e+00
    END EphemerisTimePosVel
END Ephemeris
